[{"OBJECT_NAME":"GHGSAT-C3","OBJECT_ID":"2022-057F","EPOCH":"2026-03-09T22:30:13.234752","MEAN_MOTION":15.32943835,"ECCENTRICITY":0.00073198,"INCLINATION":97.6431,"RA_OF_ASC_NODE":211.0668,"ARG_OF_PERICENTER":112.4588,"MEAN_ANOMALY":247.7429,"EPHEMERIS_TYPE":0,"CLASSIFICATION_TYPE":"U","NORAD_CAT_ID":52737,"ELEMENT_SET_NO":999,"REV_AT_EPOCH":21032,"BSTAR":0.00031249517,"MEAN_MOTION_DOT":9.871e-5,"MEAN_MOTION_DDOT":0},{"OBJECT_NAME":"STARLINK-32424","OBJECT_ID":"2024-184S","EPOCH":"2026-03-09T03:54:30.515616","MEAN_MOTION":15.30191613,"ECCENTRICITY":0.00010111,"INCLINATION":53.161,"RA_OF_ASC_NODE":16.5816,"ARG_OF_PERICENTER":93.8363,"MEAN_ANOMALY":266.2753,"EPHEMERIS_TYPE":0,"CLASSIFICATION_TYPE":"U","NORAD_CAT_ID":61548,"ELEMENT_SET_NO":999,"REV_AT_EPOCH":7842,"BSTAR":-9.494418e-6,"MEAN_MOTION_DOT":-6.4e-6,"MEAN_MOTION_DDOT":0}]
